[{"OBJECT_NAME":"OBJECT H","OBJECT_ID":"2023-091H","EPOCH":"2026-03-09T22:34:46.487712","MEAN_MOTION":15.26380881,"ECCENTRICITY":0.00117854,"INCLINATION":97.5166,"RA_OF_ASC_NODE":131.4381,"ARG_OF_PERICENTER":104.1062,"MEAN_ANOMALY":256.1487,"EPHEMERIS_TYPE":0,"CLASSIFICATION_TYPE":"U","NORAD_CAT_ID":57173,"ELEMENT_SET_NO":999,"REV_AT_EPOCH":14915,"BSTAR":0.00056321781,"MEAN_MOTION_DOT":0.00014617,"MEAN_MOTION_DDOT":0},{"OBJECT_NAME":"STARLINK-35961","OBJECT_ID":"2025-265Q","EPOCH":"2026-03-08T23:34:58.990080","MEAN_MOTION":15.27598115,"ECCENTRICITY":0.00019365,"INCLINATION":43.004,"RA_OF_ASC_NODE":282.0756,"ARG_OF_PERICENTER":268.8997,"MEAN_ANOMALY":91.1633,"EPHEMERIS_TYPE":0,"CLASSIFICATION_TYPE":"U","NORAD_CAT_ID":66530,"ELEMENT_SET_NO":999,"REV_AT_EPOCH":1700,"BSTAR":0.0013363732,"MEAN_MOTION_DOT":0.00036716,"MEAN_MOTION_DDOT":0}]
